COSMOS 1933             
1 18958U 88020A   26004.57237043  .00005736  00000+0  28585-3 0  9993
2 18958  82.5157 314.3160 0006123  70.1076 290.0816 15.17356244 40505
SL-3 R/B                
1 19046U 88032B   26004.59036129  .00006444  00000+0  30776-3 0  9991
2 19046  97.5100 348.1584 0028456  96.9655 263.4817 15.19026415 42373
SL-16 R/B               
1 19120U 88039B   26004.64765097  .00000227  00000+0  13003-3 0  9997
2 19120  71.0135 203.9626 0019567  76.8886 283.4421 14.19602480949293
COSMOS 1953             
1 19210U 88050A   25363.34859606  .00008063  00000+0  30114-3 0  9992
2 19210  82.5080 228.9139 0012535  18.6006 341.5688 15.27141359 27045
SL-8 R/B                
1 19257U 88053B   26004.62419374  .00000424  00000+0  14601-3 0  9990
2 19257  74.0462 230.5438 0019062  66.0882   0.0597 14.38876226967383
COSMOS 1975             
1 19573U 88093A   26004.52506552  .00008598  00000+0  32393-3 0  9997
2 19573  82.5189 182.0120 0012534  40.6269 319.5902 15.26859851  9611
SL-14 R/B               
1 19574U 88093B   26004.41351008  .00000875  00000+0  98104-4 0  9993
2 19574  82.5318 102.3906 0019328 249.3240 207.5906 14.85580347991499
SL-16 R/B               
1 19650U 88102B   26004.20310633 -.00000164  00000+0 -58523-4 0  9999
2 19650  71.0003 287.1790 0011915 112.9669 247.2712 14.16141992917762
INTERCOSMOS 24          
1 20261U 89080A   26004.62358609  .00000709  00000+0  19963-3 0  9993
2 20261  82.6070 146.0770 1188881  81.4567 291.9156 12.59477257658738
SL-14 R/B               
1 20262U 89080C   26004.62566610  .00000440  00000+0  13142-3 0  9992
2 20262  82.5912 214.3264 1230119 331.2849  22.5501 12.50432956652140
DELTA 1 R/B             
1 20323U 89089B   26004.60976819  .00000658  00000+0  17181-3 0  9991
2 20323  97.0739 222.2217 0068311 326.2260  33.4595 14.50596262886444
ARIANE 40 R/B           
1 20443U 90005H   26004.60276036  .00000521  00000+0  17956-3 0  9997
2 20443  98.3208  67.1310 0010730  42.7356 317.4665 14.39819127883580
